#dP2024 11 27  0  0  0.00000000      96 __u+U IGS20 FIT  IAC
## 2342 259200.00000000   900.00000000 60641 0.0000000000000
+  130   C01C02C04C05C06C07C08C09C10C11C12C13C14C16C19C20C21
+        C22C23C24C25C26C27C28C29C30C32C33C34C35C36C37C38C39
+        C40C41C42C43C44C45C59C60C62E02E03E04E05E06E07E08E09
+        E10E11E12E13E14E15E18E19E21E24E25E26E27E29E30E31E33
+        E34E36G02G03G04G05G06G07G08G09G10G11G12G13G14G15G16
+        G17G18G19G20G21G22G23G24G25G26G27G28G29G30G31G32J02
+        J03J04J07R01R02R03R04R05R06R07R08R09R10R11R12R13R14
+        R15R16R17R18R19R20R21R22R23R24R26  0  0  0  0  0  0
++         0  0  0  0  0  0  0  0  0  0  0  0  0  0  0  0  0
++         0  0  0  0  0  0  0  0  0  0  0  0  0  0  0  0  0
++         0  0  0  0  0  0  0  0  0  0  0  0  0  0  0  0  0
++         0  0  0  0  0  0  0  0  0  0  0  0  0  0  0  0  0
++         0  0  0  0  0  0  0  0  0  0  0  0  0  0  0  0  0
++         0  0  0  0  0  0  0  0  0  0  0  0  0  0  0  0  0
++         0  0  0  0  0  0  0  0  0  0  0  0  0  0  0  0  0
++         0  0  0  0  0  0  0  0  0  0  0  0  0  0  0  0  0
%c M  cc GPS ccc cccc cccc cccc cccc ccccc ccccc ccccc ccccc
%c cc cc ccc ccc cccc cccc cccc cccc ccccc ccccc ccccc ccccc
%f  0.0000000  0.000000000  0.00000000000  0.000000000000000
%f  0.0000000  0.000000000  0.00000000000  0.000000000000000
%i    0    0    0    0      0      0      0      0         0
%i    0    0    0    0      0      0      0      0         0
/* INFORMATION & ANALYSIS CENTER (IAC)            RAPID DATA
/* S/V CLOCKS ARE ALIGNED TO GNSS TIME                      
/* G:C1WC2W R:C1PC2P E:C1XC5X C:C2IC6I J:C1CC2S             
/* PCV:IGS20_2317 OL/AL:FES2004  NONE     YN ORB:CoN CLK:CoN
*  2024 11 27  9 30  0.00000000
PC01 -34293.096570  24490.023537  -1355.204823 999999.999999
PC02   4469.285249  41902.841084  -1228.092910    764.335515
PC04 -39642.840930  14346.730723  -1425.430804   -514.548218
PC05  21907.359218  35975.374650   -473.370377   -179.387236
PC06 -18066.508954  33287.499350  18299.540486    482.269102
PC07  -3109.477490  38009.549827  18360.556617   -170.069172
PC08  -6653.523534  18923.036006 -37096.015522   -842.984209
PC09 -11559.439939  31963.407584  25018.493678   -693.597703
PC10   2767.724206  40334.560005  13330.390597   -304.782918
PC11   4081.866388 -25591.351770  10422.404276    262.259387
PC12  15514.786437 -21769.533573  -7960.926738   -243.234709
PC13     39.688023  21856.460676 -35843.402600     84.948553
PC14  -6774.753702 -23543.483372  13318.834264   -476.001926
PC16 -20923.996793  32962.765483  15754.458770     70.203026
PC19  14033.597873  23647.061521  -4800.651084   -972.016901
PC20     29.205184  20694.238017 -18730.452897   -901.176211
PC21  15547.433265  -4701.493374  22701.530054   -912.195831
PC22  20929.340630  13303.808365  12803.509419    190.671725
PC23 -24963.516090  -5006.874775 -11441.279846   -898.582672
PC24  12334.546532 -15821.398369 -19409.332471    751.874790
PC25  -9256.151370 -14563.242421 -21951.940355    572.420382
PC26  25994.129723  -8304.258853  -5772.799969   -383.113340
PC27 -18017.368822  14516.313443  15582.169803    401.938085
PC28 -16185.262455  -2629.189096  22590.342499    313.229291
PC29   3983.852967  22315.479597 -16275.468959    367.753106
PC30 -10202.976395  25954.308477    665.401146     38.079256
PC32 -15575.111620   4722.519843 -22658.498403   -818.151430
PC33 -14096.742590 -23567.745700   4923.318925   -949.037243
PC34   9084.593379 -26375.171957   1057.514682    573.249803
PC35  16119.738757   2833.740568 -22615.254411    197.088287
PC36   9334.241162  14645.258965  21853.937734    228.296114
PC37 -26327.851319   7529.678061   5463.687062   -894.217698
PC38 -14080.213919  18976.796996 -34891.399010    193.706232
PC39 -22810.296027  33666.925585  10641.421708    -10.431802
PC40  -7486.956065  35463.372917  21836.974576   -104.965331
PC41 -20936.440547 -14032.617753 -11916.971175   -887.545153
PC42   1693.870166 -19623.678693  19794.190896   -524.763209
PC43  -3311.182209 -22956.393075  15524.349401     93.503963
PC44  17560.321390 -15059.286500 -15638.474775    664.545615
PC45  24622.204536   5407.848958  11927.320484   -175.692333
PC59 -32274.163651  27089.294951  -1724.510652     -0.944152
PC60   7295.244316  41475.701770  -1800.446933      0.575110
PC62 -39630.091968  14394.844570   1262.653901      0.255273
PE02 -26278.389339  -3722.280951  13120.988236    177.943812
PE03 -16827.180351   2109.058086 -24271.577007   -156.169071
PE04  10197.091374 -22704.442484  16021.758545    -92.628761
PE05 -13403.524298 -19259.992525 -18047.899764   4805.351082
PE06   4315.172745 -28251.645381   7706.864889    -52.111169
PE07   1918.043289  29526.548464    941.411049   -155.086501
PE08 -10520.213054  22117.175616 -16636.430952   -374.634782
PE09  -1856.625951 -29523.178435   -893.077236   -678.816768
PE10  13695.719346 -20793.180145  16004.296980   -672.641592
PE11   3147.813974 -19079.995600  22411.370268    564.621347
PE12  20935.567182 -19306.548708   8100.573392  -1314.387982
PE13  -3785.731767  19207.135578 -22189.129116    -27.268751
PE14   4943.175490 -22773.888994  -7484.533578    415.579933
PE15 -21411.996166  19049.333572  -7385.769822   -141.579013
PE18   2646.457670  32006.471773  -1297.670007    819.571839
PE19  16791.200130    115.625849  24376.329434    997.676156
PE21  24090.353652  16508.416349   4804.004378   -630.749951
PE24  -7481.668912 -20092.201419 -20437.751662  -1122.920338
PE25 -23860.525527 -16725.723124  -5236.731548     11.668230
PE26  16180.583640   7901.951256 -23478.136465   -199.686716
PE27   7587.080282  20020.248970  20432.696663   -514.856687
PE29  13627.286997  18931.718296  18203.734298    -49.013935
PE30 -13128.752311  11748.294633  23776.113717   -968.866861
PE31  13150.949977 -11687.098602 -23799.686292    -44.471613
PE33  26086.368981  -7388.425862 -11855.664496     16.243280
PE34 -26157.439337   7754.409470  11501.974461   -148.355679
PE36 -15672.135899  -8175.260402  23752.356863   -316.919661
PG02 -11214.861798  20624.204297 -11589.368538   -305.198335
PG03    420.856032  15732.764939 -21577.766551    610.653049
PG04   -978.721840  26077.187289  -4476.067287    486.435833
PG05  15755.288151  -8269.220379  19563.954347   -194.266787
PG06  20787.446887  -1604.657214 -16451.580765     -0.118189
PG07   4923.366497  15483.703521  21479.276367    -17.952125
PG08  -7558.900834  20371.219399  14841.373828    424.359442
PG09   6682.795480  25283.960840   4328.130194    462.182751
PG10 -24565.838234 -10574.455226   -168.414991   -211.736711
PG11  23307.347431 -11689.825806  -4835.376512   -751.537597
PG12   5053.787952 -14585.516440 -21904.280921   -554.755399
PG13  13157.185631 -12928.026080  18785.240642    687.717892
PG14  23063.771102  13058.934312   3171.201905    548.458373
PG15   4523.064951 -21732.594187  13952.641730    232.714217
PG16 -20246.167805   2508.373347  16894.697264   -117.811038
PG17  12865.737011  14841.416059 -17368.282732    542.530157
PG18  -6532.370199 -13597.540392  21875.743400   -660.590732
PG19  15024.170702   4520.093286 -21620.926970    567.517663
PG20  23871.210044  -2629.536681  11267.750372    368.382093
PG21 -15583.793228  19761.102952  -6085.611603     96.438214
PG22  24145.922208   9389.248311  -4654.347695    -82.445355
PG23 -17286.221705 -15965.306803  12580.341827    371.811974
PG24  11734.493700 -21329.693954 -10584.116335   -477.687188
PG25 -10059.591738 -17680.340365 -17568.612968    498.672051
PG26 -25600.105222  -3015.329083   7016.540211     11.817007
PG27 -13181.224929   9890.018580  20434.850648    -34.564855
PG28 -19848.107856     -1.269683 -17667.730208   -491.507334
PG29  -3945.379881 -25857.273143   4178.667040   -560.574193
PG30  15710.796511   7067.994556  20425.914417   -273.383396
PG31 -23594.282090   8366.191965  -9651.628724   -221.035194
PG32 -14684.193656 -11289.622300 -18892.255331   -567.809508
PJ02 -27065.747421  21741.535295  29134.348065      0.260612
PJ03 -34651.033808  23890.171001   2438.832170     -7.649644
PJ04 -20667.180485  24589.164744 -22333.955375     21.547545
PJ07 -25389.375529  33664.840964     21.817259     -0.053052
PR01 -15257.754731 -10508.788415 -17533.269514    105.787350
PR02  -8932.937437   6053.495698 -23068.543712    -39.384750
PR03   2222.357638  20116.754166 -15438.017371    112.154815
PR04  11523.183093  22741.767857    325.688476    265.862497
PR05  14791.575873  13308.570672  15949.525823    141.332015
PR06   7977.676463  -7931.996521  22880.599747   -190.690846
PR07  -2471.128579 -20399.229120  15191.691286     95.794248
PR08 -11807.514711 -22632.035847   -448.837007     -6.222838
PR09  22079.388597  -5456.092844 -11618.227283    222.901126
PR10   9199.594179 -10058.125353 -21555.846188   -249.703543
PR11 -10256.000274 -10335.421244 -20932.429196      6.027741
PR12 -24500.036306  -3918.305704  -5933.761376     47.710951
PR13 -23414.588680   3764.200098   9385.073239    -53.903857
PR14  -7123.813066  10510.148737  22127.244054     27.285249
PR15  12006.068503  10200.502843  20077.418334     73.688901
PR16  24464.430068   3899.681524   6157.826353     31.110678
PR17 -10651.924645  22131.668154  -6953.389851    143.512332
PR18    185.323867  15912.037351 -19896.846980    173.905431
PR19  10005.889772   3855.445012 -23135.876698   -299.920098
PR20  17170.835305 -15000.038536 -11458.376732   -122.463905
PR21  11401.261299 -22002.221902   5989.635403   -154.785731
PR22  -1055.797752 -15327.712397  20396.542857    -23.114235
PR23 -11653.855427  -1085.719550  22664.540615   -139.726598
PR24 -16605.553775  15986.699744  10971.841647    -81.790364
PR26 -11190.705424 -22877.145676   1312.666412   -133.252526
EOF
